TEVEL2-7                
1 63238U 25052AE  26068.66113295  .00019244  00000+0  69668-3 0  9998
2 63238  97.4054 324.3041 0008105 124.6830 235.5175 15.28414096 54803
STARLINK-36518          
1 67453U 26008J   26068.44940321  .00041449  00000+0  15077-2 0  9993
2 67453  43.0009 206.7192 0002251 268.7225  91.3369 15.27570262  9537
